start=new Date('2021-12-06T00:00:00.000Z').valueOf();
sats=[{"BSTAR":"0.00006877800000","PERIAPSIS":"545.622","APOAPSIS":"548.847","CLASSIFICATION_TYPE":"U","ARG_OF_PERICENTER":"66.2316","OBJECT_NAME":"STARLINK-2549","SEMIMAJOR_AXIS":"6925.370","TIME_SYSTEM":"UTC","TLE_LINE1":"1 48314U 21036AQ  21339.90526270  .00000743  00000-0  68778-4 0  9995","FILE":"3233515","MEAN_MOTION_DDOT":"0.0000000000000","RA_OF_ASC_NODE":"231.3291","OBJECT_TYPE":"PAYLOAD","EPHEMERIS_TYPE":"0","PERIOD":"95.593","OBJECT_ID":"2021-036AQ","TLE_LINE2":"2 48314  53.0533 231.3291 0002329  66.2316 293.8917 15.06393165 33826","INCLINATION":"53.0533","RCS_SIZE":"LARGE","EPOCH":"2021-12-05T21:43:34.697280","SITE":"AFETR","MEAN_ELEMENT_THEORY":"SGP4","REF_FRAME":"TEME","CENTER_NAME":"EARTH","DECAY_DATE":null,"COUNTRY_CODE":"US","ECCENTRICITY":"0.00023290","MEAN_ANOMALY":"293.8917","MEAN_MOTION":"15.06393165","ELEMENT_SET_NO":"999","MEAN_MOTION_DOT":"0.00000743","LAUNCH_DATE":"2021-04-29","GP_ID":"191169870","REV_AT_EPOCH":"3382","NORAD_CAT_ID":"48314"},{"FILE":"3233515","MEAN_MOTION_DDOT":"0.0000000000000","RA_OF_ASC_NODE":"231.3418","OBJECT_TYPE":"PAYLOAD","EPHEMERIS_TYPE":"0","PERIOD":"95.592","TLE_LINE2":"2 48315  53.0552 231.3418 0002380  69.1814 290.9430 15.06399715 33826","OBJECT_ID":"2021-036AR","INCLINATION":"53.0552","RCS_SIZE":"LARGE","BSTAR":"0.00013477000000","APOAPSIS":"548.863","PERIAPSIS":"545.566","CLASSIFICATION_TYPE":"U","ARG_OF_PERICENTER":"69.1814","OBJECT_NAME":"STARLINK-2506","SEMIMAJOR_AXIS":"6925.349","TIME_SYSTEM":"UTC","TLE_LINE1":"1 48315U 21036AR  21339.90157063  .00001726  00000-0  13477-3 0  9993","MEAN_ANOMALY":"290.9430","MEAN_MOTION":"15.06399715","ELEMENT_SET_NO":"999","MEAN_MOTION_DOT":"0.00001726","LAUNCH_DATE":"2021-04-29","GP_ID":"191170621","REV_AT_EPOCH":"3382","NORAD_CAT_ID":"48315","EPOCH":"2021-12-05T21:38:15.702432","SITE":"AFETR","REF_FRAME":"TEME","MEAN_ELEMENT_THEORY":"SGP4","CENTER_NAME":"EARTH","DECAY_DATE":null,"ECCENTRICITY":"0.00023800","COUNTRY_CODE":"US"},{"ARG_OF_PERICENTER":"69.4255","CLASSIFICATION_TYPE":"U","BSTAR":"0.00008797900000","PERIAPSIS":"545.719","APOAPSIS":"548.741","OBJECT_NAME":"STARLINK-2507","SEMIMAJOR_AXIS":"6925.365","TIME_SYSTEM":"UTC","TLE_LINE1":"1 48316U 21036AS  21339.96423806  .00001029  00000-0  87979-4 0  9996","FILE":"3233515","MEAN_MOTION_DDOT":"0.0000000000000","RA_OF_ASC_NODE":"231.0631","EPHEMERIS_TYPE":"0","OBJECT_TYPE":"PAYLOAD","TLE_LINE2":"2 48316  53.0552 231.0631 0002182  69.4255 290.6968 15.06394676 33838","OBJECT_ID":"2021-036AS","INCLINATION":"53.0552","PERIOD":"95.592","RCS_SIZE":"LARGE","EPOCH":"2021-12-05T23:08:30.168384","REF_FRAME":"TEME","MEAN_ELEMENT_THEORY":"SGP4","SITE":"AFETR","CENTER_NAME":"EARTH","DECAY_DATE":null,"COUNTRY_CODE":"US","ECCENTRICITY":"0.00021820","MEAN_ANOMALY":"290.6968","MEAN_MOTION":"15.06394676","LAUNCH_DATE":"2021-04-29","MEAN_MOTION_DOT":"0.00001029","ELEMENT_SET_NO":"999","REV_AT_EPOCH":"3383","GP_ID":"191170872","NORAD_CAT_ID":"48316"},{"LAUNCH_DATE":"2021-04-29","MEAN_MOTION_DOT":"0.00001922","ELEMENT_SET_NO":"999","MEAN_ANOMALY":"295.1032","MEAN_MOTION":"15.06393559","NORAD_CAT_ID":"48317","REV_AT_EPOCH":"3383","GP_ID":"191171623","REF_FRAME":"TEME","MEAN_ELEMENT_THEORY":"SGP4","SITE":"AFETR","EPOCH":"2021-12-05T23:03:11.771424","COUNTRY_CODE":"US","ECCENTRICITY":"0.00022510","CENTER_NAME":"EARTH","DECAY_DATE":null,"EPHEMERIS_TYPE":"0","OBJECT_TYPE":"PAYLOAD","FILE":"3233515","RA_OF_ASC_NODE":"231.0757","MEAN_MOTION_DDOT":"0.0000000000000","RCS_SIZE":"LARGE","TLE_LINE2":"2 48317  53.0548 231.0757 0002251  65.0190 295.1032 15.06393559 33831","OBJECT_ID":"2021-036AT","INCLINATION":"53.0548","PERIOD":"95.593","OBJECT_NAME":"STARLINK-2513","ARG_OF_PERICENTER":"65.0190","CLASSIFICATION_TYPE":"U","BSTAR":"0.00014793000000","APOAPSIS":"548.792","PERIAPSIS":"545.674","TIME_SYSTEM":"UTC","TLE_LINE1":"1 48317U 21036AT  21339.96055291  .00001922  00000-0  14793-3 0  9991","SEMIMAJOR_AXIS":"6925.368"},{"DECAY_DATE":null,"CENTER_NAME":"EARTH","ECCENTRICITY":"0.00022030","COUNTRY_CODE":"US","EPOCH":"2021-12-05T22:51:14.967648","REF_FRAME":"TEME","MEAN_ELEMENT_THEORY":"SGP4","SITE":"AFETR","REV_AT_EPOCH":"3369","GP_ID":"191170371","NORAD_CAT_ID":"48318","MEAN_MOTION":"15.06399469","MEAN_ANOMALY":"300.8921","LAUNCH_DATE":"2021-04-29","MEAN_MOTION_DOT":"0.00001828","ELEMENT_SET_NO":"999","SEMIMAJOR_AXIS":"6925.350","TLE_LINE1":"1 48318U 21036AU  21339.95225657  .00001828  00000-0  14162-3 0  9991","TIME_SYSTEM":"UTC","CLASSIFICATION_TYPE":"U","ARG_OF_PERICENTER":"59.2284","PERIAPSIS":"545.690","APOAPSIS":"548.741","BSTAR":"0.00014162000000","OBJECT_NAME":"STARLINK-2509","INCLINATION":"53.0535","TLE_LINE2":"2 48318  53.0535 241.0960 0002203  59.2284 300.8921 15.06399469 33692","OBJECT_ID":"2021-036AU","PERIOD":"95.592","RCS_SIZE":"LARGE","MEAN_MOTION_DDOT":"0.0000000000000","RA_OF_ASC_NODE":"241.0960","FILE":"3233515","EPHEMERIS_TYPE":"0","OBJECT_TYPE":"PAYLOAD"},{"CENTER_NAME":"EARTH","DECAY_DATE":null,"ECCENTRICITY":"0.00023590","COUNTRY_CODE":"US","EPOCH":"2021-12-05T22:45:56.292480","MEAN_ELEMENT_THEORY":"SGP4","REF_FRAME":"TEME","SITE":"AFETR","REV_AT_EPOCH":"3369","GP_ID":"191170121","NORAD_CAT_ID":"48319","MEAN_ANOMALY":"297.0603","MEAN_MOTION":"15.06401860","LAUNCH_DATE":"2021-04-29","MEAN_MOTION_DOT":"0.00002077","ELEMENT_SET_NO":"999","SEMIMAJOR_AXIS":"6925.343","TIME_SYSTEM":"UTC","TLE_LINE1":"1 48319U 21036AV  21339.94856820  .00002077  00000-0  15832-3 0  9995","ARG_OF_PERICENTER":"63.0627","CLASSIFICATION_TYPE":"U","BSTAR":"0.00015832000000","APOAPSIS":"548.842","PERIAPSIS":"545.574","OBJECT_NAME":"STARLINK-2512","OBJECT_ID":"2021-036AV","TLE_LINE2":"2 48319  53.0536 241.1181 0002359  63.0627 297.0603 15.06401860 33699","INCLINATION":"53.0536","PERIOD":"95.592","RCS_SIZE":"LARGE","FILE":"3233515","MEAN_MOTION_DDOT":"0.0000000000000","RA_OF_ASC_NODE":"241.1181","EPHEMERIS_TYPE":"0","OBJECT_TYPE":"PAYLOAD"},{"MEAN_MOTION_DOT":"0.00001792","ELEMENT_SET_NO":"999","LAUNCH_DATE":"2021-04-29","MEAN_ANOMALY":"299.8753","MEAN_MOTION":"15.06391454","NORAD_CAT_ID":"48320","GP_ID":"191171373","REV_AT_EPOCH":"3369","SITE":"AFETR","MEAN_ELEMENT_THEORY":"SGP4","REF_FRAME":"TEME","EPOCH":"2021-12-05T22:40:38.002656","ECCENTRICITY":"0.00022200","COUNTRY_CODE":"US","CENTER_NAME":"EARTH","DECAY_DATE":null,"OBJECT_TYPE":"PAYLOAD","EPHEMERIS_TYPE":"0","FILE":"3233515","RA_OF_ASC_NODE":"241.1260","MEAN_MOTION_DDOT":"0.0000000000000","RCS_SIZE":"LARGE","PERIOD":"95.593","OBJECT_ID":"2021-036AW","TLE_LINE2":"2 48320  53.0540 241.1260 0002220  60.2457 299.8753 15.06391454 33694","INCLINATION":"53.0540","OBJECT_NAME":"STARLINK-2029","BSTAR":"0.00013920000000","PERIAPSIS":"545.702","APOAPSIS":"548.777","CLASSIFICATION_TYPE":"U","ARG_OF_PERICENTER":"60.2457","TIME_SYSTEM":"UTC","TLE_LINE1":"1 48320U 21036AW  21339.94488429  .00001792  00000-0  13920-3 0  9992","SEMIMAJOR_AXIS":"6925.375"},{"CENTER_NAME":"EARTH","DECAY_DATE":null,"ECCENTRICITY":"0.00023110","COUNTRY_CODE":"US","EPOCH":"2021-12-05T22:35:19.583232","SITE":"AFETR","REF_FRAME":"TEME","MEAN_ELEMENT_THEORY":"SGP4","GP_ID":"191171123","REV_AT_EPOCH":"3369","NORAD_CAT_ID":"48321","MEAN_ANOMALY":"296.9972","MEAN_MOTION":"15.06399341","MEAN_MOTION_DOT":"0.00000666","ELEMENT_SET_NO":"999","LAUNCH_DATE":"2021-04-29","SEMIMAJOR_AXIS":"6925.351","TIME_SYSTEM":"UTC","TLE_LINE1":"1 48321U 21036AX  21339.94119888  .00000666  00000-0  63600-4 0  9993","BSTAR":"0.00006360000000","APOAPSIS":"548.816","PERIAPSIS":"545.615","CLASSIFICATION_TYPE":"U","ARG_OF_PERICENTER":"63.1253","OBJECT_NAME":"STARLINK-2457","PERIOD":"95.592","TLE_LINE2":"2 48321  53.0547 241.1452 0002311  63.1253 296.9972 15.06399341 33696","OBJECT_ID":"2021-036AX","INCLINATION":"53.0547","RCS_SIZE":"LARGE","FILE":"3233515","RA_OF_ASC_NODE":"241.1452","MEAN_MOTION_DDOT":"0.0000000000000","OBJECT_TYPE":"PAYLOAD","EPHEMERIS_TYPE":"0"},{"COUNTRY_CODE":"US","ECCENTRICITY":"0.00021260","DECAY_DATE":null,"CENTER_NAME":"EARTH","MEAN_ELEMENT_THEORY":"SGP4","REF_FRAME":"TEME","SITE":"AFETR","EPOCH":"2021-12-05T22:30:01.284768","NORAD_CAT_ID":"48322","REV_AT_EPOCH":"3369","GP_ID":"191169871","LAUNCH_DATE":"2021-04-29","MEAN_MOTION_DOT":"0.00001891","ELEMENT_SET_NO":"999","MEAN_MOTION":"15.06401399","MEAN_ANOMALY":"292.4990","TLE_LINE1":"1 48322U 21036AY  21339.93751487  .00001891  00000-0  14584-3 0  9997","TIME_SYSTEM":"UTC","SEMIMAJOR_AXIS":"6925.344","OBJECT_NAME":"STARLINK-2477","CLASSIFICATION_TYPE":"U","ARG_OF_PERICENTER":"67.6224","APOAPSIS":"548.682","PERIAPSIS":"545.737","BSTAR":"0.00014584000000","RCS_SIZE":"LARGE","INCLINATION":"53.0547","OBJECT_ID":"2021-036AY","TLE_LINE2":"2 48322  53.0547 241.1596 0002126  67.6224 292.4990 15.06401399 33695","PERIOD":"95.592","EPHEMERIS_TYPE":"0","OBJECT_TYPE":"PAYLOAD","RA_OF_ASC_NODE":"241.1596","MEAN_MOTION_DDOT":"0.0000000000000","FILE":"3233515"},{"NORAD_CAT_ID":"48323","REV_AT_EPOCH":"3369","GP_ID":"191170622","LAUNCH_DATE":"2021-04-29","MEAN_MOTION_DOT":"0.00019952","ELEMENT_SET_NO":"999","MEAN_MOTION":"15.06301782","MEAN_ANOMALY":"278.4004","COUNTRY_CODE":"US","ECCENTRICITY":"0.00012720","DECAY_DATE":null,"CENTER_NAME":"EARTH","MEAN_ELEMENT_THEORY":"SGP4","REF_FRAME":"TEME","SITE":"AFETR","EPOCH":"2021-12-05T22:24:45.451296","RCS_SIZE":"LARGE","INCLINATION":"53.0556","TLE_LINE2":"2 48323  53.0556 241.1906 0001272  81.7129 278.4004 15.06301782 33698","OBJECT_ID":"2021-036AZ","PERIOD":"95.598","EPHEMERIS_TYPE":"0","OBJECT_TYPE":"PAYLOAD","MEAN_MOTION_DDOT":"0.0000000000000","RA_OF_ASC_NODE":"241.1906","FILE":"3233515","TLE_LINE1":"1 48323U 21036AZ  21339.93385939  .00019952  00000-0  13581-2 0  9995","TIME_SYSTEM":"UTC","SEMIMAJOR_AXIS":"6925.650","OBJECT_NAME":"STARLINK-2515","ARG_OF_PERICENTER":"81.7129","CLASSIFICATION_TYPE":"U","APOAPSIS":"548.396","PERIAPSIS":"546.634","BSTAR":"0.00135810000000"}];
